CCSDS_OMM_VERS = 2.0
CREATION_DATE  = 
ORIGINATOR     = 

OBJECT_NAME    = STARLINK-35630
OBJECT_ID      = 2025-237T
CENTER_NAME    = EARTH
REF_FRAME      = TEME
TIME_SYSTEM    = UTC
MEAN_ELEMENT_THEORY = SGP/SGP4

EPOCH          = 2025-11-13T20:00:01.999008
MEAN_MOTION    = 15.49333906
ECCENTRICITY   = .0000978
INCLINATION    = 53.1602
RA_OF_ASC_NODE = 223.9022
ARG_OF_PERICENTER = 91.8214
MEAN_ANOMALY   = 347.8248

EPHEMERIS_TYPE = 0
CLASSIFICATION_TYPE = U
NORAD_CAT_ID   = 66131
ELEMENT_SET_NO = 999
REV_AT_EPOCH   = 483
BSTAR          = -.13635E-2
MEAN_MOTION_DOT = -.75614E-3
MEAN_MOTION_DDOT = 0

CCSDS_OMM_VERS = 2.0
CREATION_DATE  = 
ORIGINATOR     = 

OBJECT_NAME    = STARLINK-34412
OBJECT_ID      = 2025-237U
CENTER_NAME    = EARTH
REF_FRAME      = TEME
TIME_SYSTEM    = UTC
MEAN_ELEMENT_THEORY = SGP/SGP4

EPOCH          = 2025-11-13T20:00:01.999008
MEAN_MOTION    = 15.49340552
ECCENTRICITY   = .0001036
INCLINATION    = 53.1601
RA_OF_ASC_NODE = 223.8984
ARG_OF_PERICENTER = 97.7642
MEAN_ANOMALY   = 343.8011

EPHEMERIS_TYPE = 0
CLASSIFICATION_TYPE = U
NORAD_CAT_ID   = 66132
ELEMENT_SET_NO = 999
REV_AT_EPOCH   = 474
BSTAR          = -.15761E-2
MEAN_MOTION_DOT = -.87229E-3
MEAN_MOTION_DDOT = 0

CCSDS_OMM_VERS = 2.0
CREATION_DATE  = 
ORIGINATOR     = 

OBJECT_NAME    = STARLINK-35520
OBJECT_ID      = 2025-237V
CENTER_NAME    = EARTH
REF_FRAME      = TEME
TIME_SYSTEM    = UTC
MEAN_ELEMENT_THEORY = SGP/SGP4

EPOCH          = 2025-11-13T20:00:01.999008
MEAN_MOTION    = 15.49275489
ECCENTRICITY   = .0000766
INCLINATION    = 53.1602
RA_OF_ASC_NODE = 223.8940
ARG_OF_PERICENTER = 91.2549
MEAN_ANOMALY   = 352.2996

EPHEMERIS_TYPE = 0
CLASSIFICATION_TYPE = U
NORAD_CAT_ID   = 66133
ELEMENT_SET_NO = 999
REV_AT_EPOCH   = 483
BSTAR          = -.57362E-3
MEAN_MOTION_DOT = -.32181E-3
MEAN_MOTION_DDOT = 0

CCSDS_OMM_VERS = 2.0
CREATION_DATE  = 
ORIGINATOR     = 

OBJECT_NAME    = STARLINK-35525
OBJECT_ID      = 2025-237W
CENTER_NAME    = EARTH
REF_FRAME      = TEME
TIME_SYSTEM    = UTC
MEAN_ELEMENT_THEORY = SGP/SGP4

EPOCH          = 2025-11-13T20:00:01.999008
MEAN_MOTION    = 15.49360039
ECCENTRICITY   = .0001088
INCLINATION    = 53.1601
RA_OF_ASC_NODE = 223.8914
ARG_OF_PERICENTER = 108.1602
MEAN_ANOMALY   = 337.2263

EPHEMERIS_TYPE = 0
CLASSIFICATION_TYPE = U
NORAD_CAT_ID   = 66134
ELEMENT_SET_NO = 999
REV_AT_EPOCH   = 483
BSTAR          = -.20631E-2
MEAN_MOTION_DOT = -.113736E-2
MEAN_MOTION_DDOT = 0

CCSDS_OMM_VERS = 2.0
CREATION_DATE  = 
ORIGINATOR     = 

OBJECT_NAME    = STARLINK-34852
OBJECT_ID      = 2025-237X
CENTER_NAME    = EARTH
REF_FRAME      = TEME
TIME_SYSTEM    = UTC
MEAN_ELEMENT_THEORY = SGP/SGP4

EPOCH          = 2025-11-13T20:00:01.999008
MEAN_MOTION    = 15.49339496
ECCENTRICITY   = .0000897
INCLINATION    = 53.1602
RA_OF_ASC_NODE = 223.8860
ARG_OF_PERICENTER = 93.2735
MEAN_ANOMALY   = 354.0410

EPHEMERIS_TYPE = 0
CLASSIFICATION_TYPE = U
NORAD_CAT_ID   = 66135
ELEMENT_SET_NO = 999
REV_AT_EPOCH   = 479
BSTAR          = -.15014E-2
MEAN_MOTION_DOT = -.83155E-3
MEAN_MOTION_DDOT = 0

CCSDS_OMM_VERS = 2.0
CREATION_DATE  = 
ORIGINATOR     = 

OBJECT_NAME    = STARLINK-35592
OBJECT_ID      = 2025-237Y
CENTER_NAME    = EARTH
REF_FRAME      = TEME
TIME_SYSTEM    = UTC
MEAN_ELEMENT_THEORY = SGP/SGP4

EPOCH          = 2025-11-13T20:00:01.999008
MEAN_MOTION    = 15.49277301
ECCENTRICITY   = .000066
INCLINATION    = 53.1605
RA_OF_ASC_NODE = 223.8820
ARG_OF_PERICENTER = 89.4445
MEAN_ANOMALY   = 359.8546

EPHEMERIS_TYPE = 0
CLASSIFICATION_TYPE = U
NORAD_CAT_ID   = 66136
ELEMENT_SET_NO = 999
REV_AT_EPOCH   = 483
BSTAR          = -.53665E-3
MEAN_MOTION_DOT = -.30145E-3
MEAN_MOTION_DDOT = 0

CCSDS_OMM_VERS = 2.0
CREATION_DATE  = 
ORIGINATOR     = 

OBJECT_NAME    = STARLINK-35576
OBJECT_ID      = 2025-237Z
CENTER_NAME    = EARTH
REF_FRAME      = TEME
TIME_SYSTEM    = UTC
MEAN_ELEMENT_THEORY = SGP/SGP4

EPOCH          = 2025-11-13T20:00:01.999008
MEAN_MOTION    = 15.49274487
ECCENTRICITY   = .0000765
INCLINATION    = 53.1605
RA_OF_ASC_NODE = 223.8774
ARG_OF_PERICENTER = 100.6537
MEAN_ANOMALY   = 350.5616

EPHEMERIS_TYPE = 0
CLASSIFICATION_TYPE = U
NORAD_CAT_ID   = 66137
ELEMENT_SET_NO = 999
REV_AT_EPOCH   = 483
BSTAR          = -.40783E-3
MEAN_MOTION_DOT = -.23035E-3
MEAN_MOTION_DDOT = 0

CCSDS_OMM_VERS = 2.0
CREATION_DATE  = 
ORIGINATOR     = 

OBJECT_NAME    = STARLINK-35623
OBJECT_ID      = 2025-237AA
CENTER_NAME    = EARTH
REF_FRAME      = TEME
TIME_SYSTEM    = UTC
MEAN_ELEMENT_THEORY = SGP/SGP4

EPOCH          = 2025-11-13T20:00:01.999008
MEAN_MOTION    = 15.49271536
ECCENTRICITY   = .0000691
INCLINATION    = 53.1600
RA_OF_ASC_NODE = 223.8746
ARG_OF_PERICENTER = 58.3930
MEAN_ANOMALY   = 34.7454

EPHEMERIS_TYPE = 0
CLASSIFICATION_TYPE = U
NORAD_CAT_ID   = 66138
ELEMENT_SET_NO = 999
REV_AT_EPOCH   = 483
BSTAR          = -.53767E-3
MEAN_MOTION_DOT = -.30195E-3
MEAN_MOTION_DDOT = 0

CCSDS_OMM_VERS = 2.0
CREATION_DATE  = 
ORIGINATOR     = 

OBJECT_NAME    = STARLINK-35549
OBJECT_ID      = 2025-237AB
CENTER_NAME    = EARTH
REF_FRAME      = TEME
TIME_SYSTEM    = UTC
MEAN_ELEMENT_THEORY = SGP/SGP4

EPOCH          = 2025-11-13T20:00:01.999008
MEAN_MOTION    = 15.49277601
ECCENTRICITY   = .0000686
INCLINATION    = 53.1603
RA_OF_ASC_NODE = 223.8660
ARG_OF_PERICENTER = 90.1613
MEAN_ANOMALY   = 6.8009

EPHEMERIS_TYPE = 0
CLASSIFICATION_TYPE = U
NORAD_CAT_ID   = 66139
ELEMENT_SET_NO = 999
REV_AT_EPOCH   = 483
BSTAR          = -.45333E-3
MEAN_MOTION_DOT = -.25549E-3
MEAN_MOTION_DDOT = 0

CCSDS_OMM_VERS = 2.0
CREATION_DATE  = 
ORIGINATOR     = 

OBJECT_NAME    = STARLINK-35625
OBJECT_ID      = 2025-237AC
CENTER_NAME    = EARTH
REF_FRAME      = TEME
TIME_SYSTEM    = UTC
MEAN_ELEMENT_THEORY = SGP/SGP4

EPOCH          = 2025-11-13T20:00:01.999008
MEAN_MOTION    = 15.49274190
ECCENTRICITY   = .0000532
INCLINATION    = 53.1604
RA_OF_ASC_NODE = 223.8702
ARG_OF_PERICENTER = 95.8687
MEAN_ANOMALY   = 359.1857

EPHEMERIS_TYPE = 0
CLASSIFICATION_TYPE = U
NORAD_CAT_ID   = 66140
ELEMENT_SET_NO = 999
REV_AT_EPOCH   = 483
BSTAR          = -.50399E-3
MEAN_MOTION_DOT = -.2834E-3
MEAN_MOTION_DDOT = 0

CCSDS_OMM_VERS = 2.0
CREATION_DATE  = 
ORIGINATOR     = 

OBJECT_NAME    = STARLINK-35603
OBJECT_ID      = 2025-237AD
CENTER_NAME    = EARTH
REF_FRAME      = TEME
TIME_SYSTEM    = UTC
MEAN_ELEMENT_THEORY = SGP/SGP4

EPOCH          = 2025-11-13T20:00:01.999008
MEAN_MOTION    = 15.49338108
ECCENTRICITY   = .0001084
INCLINATION    = 53.1602
RA_OF_ASC_NODE = 223.8626
ARG_OF_PERICENTER = 80.9534
MEAN_ANOMALY   = 17.8633

EPHEMERIS_TYPE = 0
CLASSIFICATION_TYPE = U
NORAD_CAT_ID   = 66141
ELEMENT_SET_NO = 999
REV_AT_EPOCH   = 483
BSTAR          = -.14927E-2
MEAN_MOTION_DOT = -.82676E-3
MEAN_MOTION_DDOT = 0

CCSDS_OMM_VERS = 2.0
CREATION_DATE  = 
ORIGINATOR     = 

OBJECT_NAME    = TJS-20
OBJECT_ID      = 2025-238A
CENTER_NAME    = EARTH
REF_FRAME      = TEME
TIME_SYSTEM    = UTC
MEAN_ELEMENT_THEORY = SGP/SGP4

EPOCH          = 2025-11-13T20:06:01.957824
MEAN_MOTION    = 1.00273768
ECCENTRICITY   = .0001562
INCLINATION    = 5.9523
RA_OF_ASC_NODE = 300.4520
ARG_OF_PERICENTER = 114.5993
MEAN_ANOMALY   = 2.1421

EPHEMERIS_TYPE = 0
CLASSIFICATION_TYPE = U
NORAD_CAT_ID   = 66142
ELEMENT_SET_NO = 999
REV_AT_EPOCH   = 17
BSTAR          = 0
MEAN_MOTION_DOT = .13E-6
MEAN_MOTION_DDOT = 0

