STARLINK-35630          
1 66131U 25237T   25317.83335647 -.00075614  00000+0 -13635-2 0  9997
2 66131  53.1602 223.9022 0000978  91.8214 347.8248 15.49333906  4839
STARLINK-34412          
1 66132U 25237U   25317.83335647 -.00087229  00000+0 -15761-2 0  9995
2 66132  53.1601 223.8984 0001036  97.7642 343.8011 15.49340552  4740
STARLINK-35520          
1 66133U 25237V   25317.83335647 -.00032181  00000+0 -57362-3 0  9997
2 66133  53.1602 223.8940 0000766  91.2549 352.2996 15.49275489  4830
STARLINK-35525          
1 66134U 25237W   25317.83335647 -.00113736  00000+0 -20631-2 0  9992
2 66134  53.1601 223.8914 0001088 108.1602 337.2263 15.49360039  4833
STARLINK-34852          
1 66135U 25237X   25317.83335647 -.00083155  00000+0 -15014-2 0  9993
2 66135  53.1602 223.8860 0000897  93.2735 354.0410 15.49339496  4792
STARLINK-35592          
1 66136U 25237Y   25317.83335647 -.00030145  00000+0 -53665-3 0  9990
2 66136  53.1605 223.8820 0000660  89.4445 359.8546 15.49277301  4839
STARLINK-35576          
1 66137U 25237Z   25317.83335647 -.00023035  00000+0 -40783-3 0  9998
2 66137  53.1605 223.8774 0000765 100.6537 350.5616 15.49274487  4830
STARLINK-35623          
1 66138U 25237AA  25317.83335647 -.00030195  00000+0 -53767-3 0  9990
2 66138  53.1600 223.8746 0000691  58.3930  34.7454 15.49271536  4832
STARLINK-35549          
1 66139U 25237AB  25317.83335647 -.00025549  00000+0 -45333-3 0  9998
2 66139  53.1603 223.8660 0000686  90.1613   6.8009 15.49277601  4832
STARLINK-35625          
1 66140U 25237AC  25317.83335647 -.00028340  00000+0 -50399-3 0  9990
2 66140  53.1604 223.8702 0000532  95.8687 359.1857 15.49274190  4830
STARLINK-35603          
1 66141U 25237AD  25317.83335647 -.00082676  00000+0 -14927-2 0  9999
2 66141  53.1602 223.8626 0001084  80.9534  17.8633 15.49338108  4833
TJS-20                  
1 66142U 25238A   25317.83752266  .00000013  00000+0  00000+0 0  9998
2 66142   5.9523 300.4520 0001562 114.5993   2.1421  1.00273768   177
